{
  "norad_id": 36413,
  "name": "YAOGAN-9 01A",
  "history": [
    {
      "epoch": "2026-04-16T19:39:22.037184Z",
      "apogee_km": 1485.7147720402172,
      "perigee_km": 690.6233593221868,
      "latitude_deg": 2.6949613186111915e-05,
      "longitude_deg": 17.214445067570928,
      "height_km": 716.4534555328179,
      "semi_major_axis_km": 7466.306065681202,
      "eccentricity": 0.0532453,
      "inclination_deg": 63.3639,
      "raan_deg": 157.0175,
      "arg_perigee_deg": 21.2317,
      "mean_anomaly_deg": 340.9927,
      "mean_motion_rev_day": 13.45687067
    },
    {
      "epoch": "2026-04-17T09:55:26.038848Z",
      "apogee_km": 1485.7476704931223,
      "perigee_km": 690.5896988996847,
      "latitude_deg": -4.819662384235897e-05,
      "longitude_deg": 161.07367797190756,
      "height_km": 716.4313066250618,
      "semi_major_axis_km": 7466.305684696404,
      "eccentricity": 0.05324976,
      "inclination_deg": 63.3639,
      "raan_deg": 155.4794,
      "arg_perigee_deg": 21.2359,
      "mean_anomaly_deg": 340.989,
      "mean_motion_rev_day": 13.4568717
    },
    {
      "epoch": "2026-04-18T19:48:35.526816Z",
      "apogee_km": 1485.843489726467,
      "perigee_km": 690.4923705229585,
      "latitude_deg": -2.339045304984747e-05,
      "longitude_deg": 7.739210525946224,
      "height_km": 716.3645050916671,
      "semi_major_axis_km": 7466.304930124712,
      "eccentricity": 0.0532627,
      "inclination_deg": 63.3637,
      "raan_deg": 151.8261,
      "arg_perigee_deg": 21.2471,
      "mean_anomaly_deg": 340.9794,
      "mean_motion_rev_day": 13.45687374
    },
    {
      "epoch": "2026-04-19T18:59:42.008352Z",
      "apogee_km": 1485.9049652751492,
      "perigee_km": 690.4299554587351,
      "latitude_deg": -1.2537757081013985e-05,
      "longitude_deg": 16.51042893357135,
      "height_km": 716.323548491091,
      "semi_major_axis_km": 7466.304460366941,
      "eccentricity": 0.053271,
      "inclination_deg": 63.3636,
      "raan_deg": 149.3265,
      "arg_perigee_deg": 21.2551,
      "mean_anomaly_deg": 340.9725,
      "mean_motion_rev_day": 13.45687501
    },
    {
      "epoch": "2026-04-20T09:15:45.992736Z",
      "apogee_km": 1485.9365308241831,
      "perigee_km": 690.3977906912032,
      "latitude_deg": -5.787204086569016e-05,
      "longitude_deg": 160.3696469693297,
      "height_km": 716.3045715918151,
      "semi_major_axis_km": 7466.304160757692,
      "eccentricity": 0.05327527,
      "inclination_deg": 63.3636,
      "raan_deg": 147.7883,
      "arg_perigee_deg": 21.2601,
      "mean_anomaly_deg": 340.9681,
      "mean_motion_rev_day": 13.45687582
    },
    {
      "epoch": "2026-04-21T19:08:55.427136Z",
      "apogee_km": 1486.0305872960362,
      "perigee_km": 690.3018551888981,
      "latitude_deg": 2.2112022455513886e-05,
      "longitude_deg": 7.035326740645119,
      "height_km": 716.2378387538264,
      "semi_major_axis_km": 7466.303221242467,
      "eccentricity": 0.053288,
      "inclination_deg": 63.3633,
      "raan_deg": 144.1349,
      "arg_perigee_deg": 21.2708,
      "mean_anomaly_deg": 340.959,
      "mean_motion_rev_day": 13.45687836
    },
    {
      "epoch": "2026-04-22T18:20:01.878432Z",
      "apogee_km": 1486.0897761759506,
      "perigee_km": 690.2416380209152,
      "latitude_deg": 1.962860894588532e-06,
      "longitude_deg": 15.80655463956191,
      "height_km": 716.1977048725577,
      "semi_major_axis_km": 7466.302707098433,
      "eccentricity": 0.053296,
      "inclination_deg": 63.3631,
      "raan_deg": 141.6352,
      "arg_perigee_deg": 21.2782,
      "mean_anomaly_deg": 340.9526,
      "mean_motion_rev_day": 13.45687975
    },
    {
      "epoch": "2026-04-23T10:23:06.339264Z",
      "apogee_km": 1486.1287787595902,
      "perigee_km": 690.201555365109,
      "latitude_deg": 1.644317572054759e-05,
      "longitude_deg": 132.64827275371073,
      "height_km": 716.1710824103628,
      "semi_major_axis_km": 7466.302167062349,
      "eccentricity": 0.0533013,
      "inclination_deg": 63.363,
      "raan_deg": 139.9047,
      "arg_perigee_deg": 21.2832,
      "mean_anomaly_deg": 340.9483,
      "mean_motion_rev_day": 13.45688121
    },
    {
      "epoch": "2026-04-24T11:21:13.267872Z",
      "apogee_km": 1486.1921785770764,
      "perigee_km": 690.1366168150053,
      "latitude_deg": -1.0075505370676174e-05,
      "longitude_deg": 114.40186528333341,
      "height_km": 716.1308212517749,
      "semi_major_axis_km": 7466.301397696041,
      "eccentricity": 0.0533099,
      "inclination_deg": 63.3628,
      "raan_deg": 137.2126,
      "arg_perigee_deg": 21.2925,
      "mean_anomaly_deg": 340.9402,
      "mean_motion_rev_day": 13.45688329
    },
    {
      "epoch": "2026-04-25T17:40:21.665568Z",
      "apogee_km": 1486.2702694245527,
      "perigee_km": 690.0565285748262,
      "latitude_deg": -2.3677980299522635e-05,
      "longitude_deg": 15.102710520946568,
      "height_km": 716.0764406893273,
      "semi_major_axis_km": 7466.300398999689,
      "eccentricity": 0.0533205,
      "inclination_deg": 63.3627,
      "raan_deg": 133.9436,
      "arg_perigee_deg": 21.3019,
      "mean_anomaly_deg": 340.9321,
      "mean_motion_rev_day": 13.45688599
    },
    {
      "epoch": "2026-04-26T18:38:28.566528Z",
      "apogee_km": 1486.328949782398,
      "perigee_km": 689.9954291533704,
      "latitude_deg": 9.341753176933875e-06,
      "longitude_deg": -3.1434498824616464,
      "height_km": 716.0387630051407,
      "semi_major_axis_km": 7466.299189467884,
      "eccentricity": 0.05332853,
      "inclination_deg": 63.3627,
      "raan_deg": 131.2516,
      "arg_perigee_deg": 21.3108,
      "mean_anomaly_deg": 340.9244,
      "mean_motion_rev_day": 13.45688926
    },
    {
      "epoch": "2026-04-27T17:49:34.954752Z",
      "apogee_km": 1486.3854877158856,
      "perigee_km": 689.9375078414423,
      "latitude_deg": 4.405816109922846e-06,
      "longitude_deg": 5.627952244865459,
      "height_km": 716.0030946125221,
      "semi_major_axis_km": 7466.298497778664,
      "eccentricity": 0.0533362,
      "inclination_deg": 63.3627,
      "raan_deg": 128.7518,
      "arg_perigee_deg": 21.3192,
      "mean_anomaly_deg": 340.9171,
      "mean_motion_rev_day": 13.45689113
    }
  ]
}